LANDSAT 9               
1 49260U 21088A   24274.16686053  .00001552  00000+0  35460-3 0  9997
2 49260  98.2225 342.4558 0001403  92.4294 267.7065 14.57096719159973
